NORAD_CAT_ID,OBJECT_NAME,OBJECT_TYPE,EPOCH,MEAN_MOTION,ECCENTRICITY,INCLINATION,RA_OF_ASC_NODE,ARG_OF_PERICENTER,MEAN_ANOMALY,BSTAR,MEAN_MOTION_DOT,MEAN_MOTION_DDOT,TLE_LINE0,TLE_LINE1,TLE_LINE2,SEMIMAJOR_AXIS,PERIOD,APOGEE,PERIGEE,DECAYED
53916.0,STARLINK-5051,PAYLOAD,2023-02-16 21:53:29,15.088401,0.0001013,53.2164,267.3028,91.757,268.3538,-1.0811e-05,-4.6e-06,0.0,0 STARLINK-5051,1 53916U 22119AG  23047.91215021 -.00000460  00000-0 -10811-4 0  9993,2 53916  53.2164 267.3028 0001013  91.7570 268.3538 15.08840100 23523,6917.88,95.438,540.446,539.044,0.0
53916.0,STARLINK-5051,PAYLOAD,2023-02-17 07:25:49,15.08836172,0.0001049,53.2164,265.5169,86.5194,273.5918,-0.00011074,-2.05e-05,0.0,0 STARLINK-5051,1 53916U 22119AG  23048.30959550 -.00002050  00000-0 -11074-3 0  9997,2 53916  53.2164 265.5169 0001049  86.5194 273.5918 15.08836172 23155,6917.892,95.438,540.483,539.031,0.0
53916.0,STARLINK-5051,PAYLOAD,2023-02-17 20:08:54,15.08834046,0.0001114,53.216,263.1406,82.5068,277.6051,-7.9987e-05,-1.56e-05,0.0,0 STARLINK-5051,1 53916U 22119AG  23048.83951922 -.00001560  00000-0 -79987-4 0  9993,2 53916  53.2160 263.1406 0001114  82.5068 277.6051 15.08834046 23665,6917.899,95.438,540.534,538.993,0.0
53916.0,STARLINK-5051,PAYLOAD,2023-02-18 13:38:09,15.08831664,0.0001551,53.2177,259.8651,80.5137,279.6031,-4.0525e-05,-9.33e-06,0.0,0 STARLINK-5051,1 53916U 22119AG  23049.56816196 -.00000933  00000-0 -40525-4 0  9996,2 53916  53.2177 259.8651 0001551  80.5137 279.6031 15.08831664 23772,6917.906,95.438,540.844,538.698,0.0
53916.0,STARLINK-5051,PAYLOAD,2023-02-18 19:59:41,15.08837238,0.0001142,53.2162,258.6767,81.7978,278.3143,1.3694e-05,-7e-07,0.0,0 STARLINK-5051,1 53916U 22119AG  23049.83311571 -.00000070  00000-0  13694-4 0  9991,2 53916  53.2162 258.6767 0001142  81.7978 278.3143 15.08837238 23383,6917.889,95.438,540.544,538.964,0.0
53916.0,STARLINK-5051,PAYLOAD,2023-02-19 13:28:55,15.08834645,0.0001216,53.2165,255.4061,81.4076,278.7054,6.6852e-05,7.76e-06,0.0,0 STARLINK-5051,1 53916U 22119AG  23050.56175650  .00000776  00000-0  66852-4 0  9995,2 53916  53.2165 255.4061 0001216  81.4076 278.7054 15.08834645 23920,6917.897,95.438,540.603,538.921,0.0
53916.0,STARLINK-5051,PAYLOAD,2023-02-20 00:36:37,15.08844597,0.0001203,53.2171,253.3249,83.1602,276.9527,8.4445e-05,1.057e-05,0.0,0 STARLINK-5051,1 53916U 22119AG  23051.02543003  .00001057  00000-0  84445-4 0  9999,2 53916  53.2171 253.3249 0001203  83.1602 276.9527 15.08844597 23564,6917.866,95.437,540.564,538.899,0.0
53916.0,STARLINK-5051,PAYLOAD,2023-02-20 06:58:09,15.08840273,0.0001123,53.2167,252.1361,94.1697,265.9424,3.8158e-05,3.2e-06,0.0,0 STARLINK-5051,1 53916U 22119AG  23051.29039347  .00000320  00000-0  38158-4 0  9991,2 53916  53.2167 252.1361 0001123  94.1697 265.9424 15.08840273 24032,6917.88,95.438,540.521,538.968,0.0
53916.0,STARLINK-5051,PAYLOAD,2023-02-21 14:45:53,15.08831221,0.0001256,53.2175,246.188,73.9791,286.1339,-6.6245e-05,-1.342e-05,0.0,0 STARLINK-5051,1 53916U 22119AG  23052.61520393 -.00001342  00000-0 -66245-4 0  9999,2 53916  53.2175 246.1880 0001256  73.9791 286.1339 15.08831221 24232,6917.907,95.438,540.641,538.903,0.0
53916.0,STARLINK-5051,PAYLOAD,2023-02-21 19:32:02,15.0883471,0.0001209,53.2171,245.2961,78.7142,281.3986,-4.5212e-05,-1.007e-05,0.0,0 STARLINK-5051,1 53916U 22119AG  23052.81392143 -.00001007  00000-0 -45212-4 0  9990,2 53916  53.2171 245.2961 0001209  78.7142 281.3986 15.08834710 23835,6917.897,95.438,540.598,538.925,0.0
53916.0,STARLINK-5051,PAYLOAD,2023-02-22 13:01:17,15.0883025,0.000118,53.2175,242.0247,78.4329,281.6795,-5.474e-05,-1.159e-05,0.0,0 STARLINK-5051,1 53916U 22119AG  23053.54256629 -.00001159  00000-0 -54740-4 0  9993,2 53916  53.2175 242.0247 0001180  78.4329 281.6795 15.08830250 24379,6917.91,95.438,540.592,538.959,0.0
53916.0,STARLINK-5051,PAYLOAD,2023-02-22 19:22:50,15.08826694,0.0001192,53.2176,240.8351,79.6304,280.4823,-0.00010406,-1.943e-05,0.0,0 STARLINK-5051,1 53916U 22119AG  23053.80753196 -.00001943  00000-0 -10406-3 0  9994,2 53916  53.2176 240.8351 0001192  79.6304 280.4823 15.08826694 23983,6917.921,95.438,540.611,538.961,0.0
53916.0,STARLINK-5051,PAYLOAD,2023-02-23 04:55:09,15.08833594,0.0001137,53.2177,239.0505,74.193,285.9188,-5.5012e-05,-1.163e-05,0.0,0 STARLINK-5051,1 53916U 22119AG  23054.20496829 -.00001163  00000-0 -55012-4 0  9993,2 53916  53.2177 239.0505 0001137  74.1930 285.9188 15.08833594 24048,6917.9,95.438,540.552,538.978,0.0
53916.0,STARLINK-5051,PAYLOAD,2023-02-23 12:52:05,15.08831839,0.000117,53.2179,237.5633,74.4501,285.6621,1.1627e-05,-1.03e-06,0.0,0 STARLINK-5051,1 53916U 22119AG  23054.53616968 -.00000103  00000-0  11627-4 0  9993,2 53916  53.2179 237.5633 0001170  74.4501 285.6621 15.08831839 24521,6917.905,95.438,540.58,538.961,0.0
53916.0,STARLINK-5051,PAYLOAD,2023-02-23 19:13:37,15.088392,0.0001207,53.2175,236.375,77.6402,282.4725,8.1723e-05,1.013e-05,0.0,0 STARLINK-5051,1 53916U 22119AG  23054.80112347  .00001013  00000-0  81723-4 0  9999,2 53916  53.2175 236.3750 0001207  77.6402 282.4725 15.08839200 24137,6917.883,95.438,540.583,538.913,0.0
53916.0,STARLINK-5051,PAYLOAD,2023-02-24 04:45:56,15.08838495,0.0001317,53.2186,234.5909,78.7685,281.3455,6.0077e-05,6.68e-06,0.0,0 STARLINK-5051,1 53916U 22119AG  23055.19856490  .00000668  00000-0  60077-4 0  9990,2 53916  53.2186 234.5909 0001317  78.7685 281.3455 15.08838495 24629,6917.885,95.438,540.661,538.839,0.0
53916.0,STARLINK-5051,PAYLOAD,2023-02-24 20:39:46,15.08844832,0.000137,53.2176,231.617,77.8378,282.2768,0.00017976,2.574e-05,0.0,0 STARLINK-5051,1 53916U 22119AG  23055.86095584  .00002574  00000-0  17976-3 0  9990,2 53916  53.2176 231.6170 0001370  77.8378 282.2768 15.08844832 24724,6917.866,95.437,540.678,538.783,0.0
53916.0,STARLINK-5051,PAYLOAD,2023-02-25 04:36:43,15.08836635,0.0001518,53.2178,230.1304,81.9395,278.1769,7.1497e-05,8.5e-06,0.0,0 STARLINK-5051,1 53916U 22119AG  23056.19216505  .00000850  00000-0  71497-4 0  9999,2 53916  53.2178 230.1304 0001518  81.9395 278.1769 15.08836635 24343,6917.891,95.438,540.806,538.706,0.0
53916.0,STARLINK-5051,PAYLOAD,2023-02-25 20:30:34,15.08844142,0.0001424,53.2184,227.1567,83.011,277.1045,-2.1607e-05,-6.32e-06,0.0,0 STARLINK-5051,1 53916U 22119AG  23056.85456273 -.00000632  00000-0 -21607-4 0  9998,2 53916  53.2184 227.1567 0001424  83.0110 277.1045 15.08844142 24877,6917.868,95.437,540.718,538.748,0.0
53916.0,STARLINK-5051,PAYLOAD,2023-02-26 10:49:02,15.0884383,0.0001358,53.2179,224.4807,83.0232,277.0914,-1.7621e-06,-3.16e-06,0.0,0 STARLINK-5051,1 53916U 22119AG  23057.45071977 -.00000316  00000-0 -17621-5 0  9990,2 53916  53.2179 224.4807 0001358  83.0232 277.0914 15.08843830 24539,6917.869,95.437,540.673,538.794,0.0
53916.0,STARLINK-5051,PAYLOAD,2023-02-26 17:10:34,15.08852922,0.0001415,53.218,223.2919,82.5886,277.5267,1.8016e-05,-1e-08,0.0,0 STARLINK-5051,1 53916U 22119AG  23057.71567175 -.00000001  00000-0  18016-4 0  9997,2 53916  53.2180 223.2919 0001415  82.5886 277.5267 15.08852922 24577,6917.841,95.437,540.685,538.727,0.0
53916.0,STARLINK-5051,PAYLOAD,2023-02-26 20:21:20,15.08856512,0.0001407,53.2181,222.6973,83.5061,276.6091,1.3387e-05,-7.5e-07,0.0,0 STARLINK-5051,1 53916U 22119AG  23057.84814851 -.00000075  00000-0  13387-4 0  9994,2 53916  53.2181 222.6973 0001407  83.5061 276.6091 15.08856512 25023,6917.83,95.437,540.668,538.722,0.0
53916.0,STARLINK-5051,PAYLOAD,2023-02-27 13:50:38,15.08808482,0.0001483,53.218,219.4263,85.3196,274.7965,-0.00020195,-3.498e-05,0.0,0 STARLINK-5051,1 53916U 22119AG  23058.57683386 -.00003498  00000-0 -20195-3 0  9999,2 53916  53.2180 219.4263 0001483  85.3196 274.7965 15.08808482 24707,6917.977,95.44,540.868,538.816,0.0
53916.0,STARLINK-5051,PAYLOAD,2023-02-28 10:30:37,15.08847045,0.0001551,53.2182,215.5613,84.401,275.7159,9.0298e-05,1.15e-05,0.0,0 STARLINK-5051,1 53916U 22119AG  23059.43793170  .00001150  00000-0  90298-4 0  9991,2 53916  53.2182 215.5613 0001551  84.4010 275.7159 15.08847045 24834,6917.859,95.437,540.797,538.651,0.0
53916.0,STARLINK-5051,PAYLOAD,2023-02-28 13:41:23,15.08852441,0.0001656,53.2182,214.9667,85.6828,274.4353,0.00013582,1.875e-05,0.0,0 STARLINK-5051,1 53916U 22119AG  23059.57040680  .00001875  00000-0  13582-3 0  9991,2 53916  53.2182 214.9667 0001656  85.6828 274.4353 15.08852441 25280,6917.842,95.437,540.853,538.562,0.0
53916.0,STARLINK-5051,PAYLOAD,2023-02-28 16:52:09,15.08856313,0.0001695,53.2184,214.3719,89.8916,270.227,0.00016416,2.327e-05,0.0,0 STARLINK-5051,1 53916U 22119AG  23059.70288223  .00002327  00000-0  16416-3 0  9995,2 53916  53.2184 214.3719 0001695  89.8916 270.2270 15.08856313 24879,6917.831,95.437,540.868,538.523,0.0
53916.0,STARLINK-5051,PAYLOAD,2023-02-28 20:02:54,15.0886507,0.0001501,53.2173,213.7757,82.8591,277.2572,0.00020806,3.027e-05,0.0,0 STARLINK-5051,1 53916U 22119AG  23059.83535530  .00003027  00000-0  20806-3 0  9991,2 53916  53.2173 213.7757 0001501  82.8591 277.2572 15.08865070 25323,6917.804,95.436,540.707,538.63,0.0
53916.0,STARLINK-5051,PAYLOAD,2023-03-01 16:42:56,15.08829427,0.0001582,53.2179,209.9105,87.6569,272.4604,0.00043873,6.699e-05,0.0,0 STARLINK-5051,1 53916U 22119AG  23060.69648995  .00006699  00000-0  43873-3 0  9994,2 53916  53.2179 209.9105 0001582  87.6569 272.4604 15.08829427 25026,6917.913,95.438,540.872,538.683,0.0
53916.0,STARLINK-5051,PAYLOAD,2023-03-01 19:53:42,15.08830749,0.0001712,53.2191,209.3172,89.0438,271.075,0.00045775,7.003e-05,0.0,0 STARLINK-5051,1 53916U 22119AG  23060.82896900  .00007003  00000-0  45775-3 0  9993,2 53916  53.2191 209.3172 0001712  89.0438 271.0750 15.08830749 25479,6917.909,95.438,540.958,538.589,0.0
53916.0,STARLINK-5051,PAYLOAD,2023-03-02 02:15:16,15.08818266,0.0002152,53.219,208.1261,70.267,289.8554,0.00026971,4.004e-05,0.0,0 STARLINK-5051,1 53916U 22119AG  23061.09394649  .00004004  00000-0  26971-3 0  9991,2 53916  53.2190 208.1261 0002152  70.2670 289.8554 15.08818266 25089,6917.947,95.439,541.301,538.323,0.0
